NORAD_CAT_ID,OBJECT_NAME,OBJECT_TYPE,EPOCH,MEAN_MOTION,ECCENTRICITY,INCLINATION,RA_OF_ASC_NODE,ARG_OF_PERICENTER,MEAN_ANOMALY,BSTAR,MEAN_MOTION_DOT,MEAN_MOTION_DDOT,TLE_LINE0,TLE_LINE1,TLE_LINE2,SEMIMAJOR_AXIS,PERIOD,APOGEE,PERIGEE,DECAYED
52612.0,STARLINK-4002,PAYLOAD,2024-02-18 03:23:09,15.08842893,0.0001791,53.216,48.4599,100.3697,259.7497,0.0008066,0.00012573,0.0,0 STARLINK-4002,1 52612U 22052Q   24049.14107948  .00012573  00000-0  80660-3 0  9991,2 52612  53.2160  48.4599 0001791 100.3697 259.7497 15.08842893 97926,6917.872,95.437,540.976,538.498,0.0
52612.0,STARLINK-4002,PAYLOAD,2024-02-18 09:44:41,15.08852492,0.0001624,53.2174,47.2719,87.0221,273.0957,0.00084743,0.00013229,0.0,0 STARLINK-4002,1 52612U 22052Q   24049.40603835  .00013229  00000-0  84743-3 0  9991,2 52612  53.2174  47.2719 0001624  87.0221 273.0957 15.08852492 97590,6917.842,95.437,540.831,538.584,0.0
52612.0,STARLINK-4002,PAYLOAD,2024-02-19 03:13:56,15.08844208,0.0001628,53.2168,43.999,87.7363,272.3816,0.00026372,3.912e-05,0.0,0 STARLINK-4002,1 52612U 22052Q   24050.13467875  .00003912  00000-0  26372-3 0  9997,2 52612  53.2168  43.9990 0001628  87.7363 272.3816 15.08844208 98071,6917.868,95.437,540.859,538.606,0.0
52612.0,STARLINK-4002,PAYLOAD,2024-02-19 06:24:42,15.08849411,0.0001517,53.2169,43.4068,93.6097,266.5069,0.00035324,5.34e-05,0.0,0 STARLINK-4002,1 52612U 22052Q   24050.26715654  .00005340  00000-0  35324-3 0  9996,2 52612  53.2169  43.4068 0001517  93.6097 266.5069 15.08849411 97727,6917.852,95.437,540.766,538.667,0.0
52612.0,STARLINK-4002,PAYLOAD,2024-02-19 22:18:34,15.08836018,0.0001497,53.2175,40.436,95.7943,264.322,-1.969e-05,-6.01e-06,0.0,0 STARLINK-4002,1 52612U 22052Q   24050.92956224 -.00000601  00000-0 -19690-4 0  9995,2 52612  53.2175  40.4360 0001497  95.7943 264.3220 15.08836018 97821,6917.893,95.438,540.793,538.722,0.0
52612.0,STARLINK-4002,PAYLOAD,2024-02-20 03:04:43,15.08837697,0.0001593,53.2179,39.5435,95.6657,264.4517,2.211e-05,6.4e-07,0.0,0 STARLINK-4002,1 52612U 22052Q   24051.12828299  .00000064  00000-0  22110-4 0  9990,2 52612  53.2179  39.5435 0001593  95.6657 264.4517 15.08837697 98224,6917.887,95.438,540.854,538.65,0.0
52612.0,STARLINK-4002,PAYLOAD,2024-02-20 06:15:29,15.08841142,0.0001597,53.2175,38.9477,94.5443,265.5732,8.4311e-05,1.054e-05,0.0,0 STARLINK-4002,1 52612U 22052Q   24051.26076077  .00001054  00000-0  84311-4 0  9995,2 52612  53.2175  38.9477 0001597  94.5443 265.5732 15.08841142 97875,6917.877,95.437,540.847,538.637,0.0
52612.0,STARLINK-4002,PAYLOAD,2024-02-20 15:47:48,15.08840796,0.0001622,53.2179,37.164,99.502,260.6156,9.994e-05,1.303e-05,0.0,0 STARLINK-4002,1 52612U 22052Q   24051.65820151  .00001303  00000-0  99940-4 0  9999,2 52612  53.2179  37.1640 0001622  99.5020 260.6156 15.08840796 97934,6917.878,95.438,540.865,538.621,0.0
52612.0,STARLINK-4002,PAYLOAD,2024-02-21 06:06:16,15.0884226,0.000162,53.218,34.4878,100.333,259.7844,0.00013264,1.824e-05,0.0,0 STARLINK-4002,1 52612U 22052Q   24052.25436300  .00001824  00000-0  13264-3 0  9997,2 52612  53.2180  34.4878 0001620 100.3330 259.7844 15.08842260 98394,6917.873,95.437,540.859,538.618,0.0
52612.0,STARLINK-4002,PAYLOAD,2024-02-21 15:38:35,15.08842714,0.0001608,53.2187,32.7017,92.7623,267.3553,0.00015843,2.234e-05,0.0,0 STARLINK-4002,1 52612U 22052Q   24052.65180291  .00002234  00000-0  15843-3 0  9997,2 52612  53.2187  32.7017 0001608  92.7623 267.3553 15.08842714 98084,6917.872,95.437,540.849,538.625,0.0
52612.0,STARLINK-4002,PAYLOAD,2024-02-22 04:21:41,15.08837659,0.0001788,53.219,30.3242,91.0621,269.0576,5.6821e-05,6.16e-06,0.0,0 STARLINK-4002,1 52612U 22052Q   24053.18172713  .00000616  00000-0  56821-4 0  9990,2 52612  53.2190  30.3242 0001788  91.0621 269.0576 15.08837659 98537,6917.888,95.438,540.989,538.516,0.0
52612.0,STARLINK-4002,PAYLOAD,2024-02-22 07:32:27,15.08842113,0.0001897,53.2199,29.7284,96.3132,263.8076,0.00011016,1.466e-05,0.0,0 STARLINK-4002,1 52612U 22052Q   24053.31420597  .00001466  00000-0  11016-3 0  9991,2 52612  53.2199  29.7284 0001897  96.3132 263.8076 15.08842113 98189,6917.874,95.437,541.051,538.427,0.0
52612.0,STARLINK-4002,PAYLOAD,2024-02-22 15:29:23,15.08842333,0.0001669,53.2185,28.2431,94.1002,266.0181,0.00011723,1.578e-05,0.0,0 STARLINK-4002,1 52612U 22052Q   24053.64540540  .00001578  00000-0  11723-3 0  9997,2 52612  53.2185  28.2431 0001669  94.1002 266.0181 15.08842333 98233,6917.873,95.437,540.893,538.584,0.0
52612.0,STARLINK-4002,PAYLOAD,2024-02-23 04:12:27,15.08851791,0.0001684,53.2186,25.8634,90.6578,269.4607,0.00018417,2.645e-05,0.0,0 STARLINK-4002,1 52612U 22052Q   24054.17532047  .00002645  00000-0  18417-3 0  9992,2 52612  53.2186  25.8634 0001684  90.6578 269.4607 15.08851791 98685,6917.844,95.437,540.874,538.544,0.0
52612.0,STARLINK-4002,PAYLOAD,2024-02-23 05:47:50,15.08852931,0.000161,53.2182,25.5642,89.8581,270.2596,0.00024149,3.559e-05,0.0,0 STARLINK-4002,1 52612U 22052Q   24054.24155950  .00003559  00000-0  24149-3 0  9998,2 52612  53.2182  25.5642 0001610  89.8581 270.2596 15.08852931 98325,6917.841,95.437,540.82,538.592,0.0
52612.0,STARLINK-4002,PAYLOAD,2024-02-23 15:20:09,15.08844058,0.0001867,53.2204,23.7798,81.2071,278.9132,0.00011733,1.58e-05,0.0,0 STARLINK-4002,1 52612U 22052Q   24054.63900369  .00001580  00000-0  11733-3 0  9990,2 52612  53.2204  23.7798 0001867  81.2071 278.9132 15.08844058 98755,6917.868,95.437,541.025,538.441,0.0
52612.0,STARLINK-4002,PAYLOAD,2024-02-24 04:03:15,15.08839181,0.0001725,53.2196,21.3985,90.3837,269.7353,9.9596e-06,-1.3e-06,0.0,0 STARLINK-4002,1 52612U 22052Q   24055.16892689 -.00000130  00000-0  99596-5 0  9990,2 52612  53.2196  21.3985 0001725  90.3837 269.7353 15.08839181 98834,6917.883,95.438,540.941,538.555,0.0
52612.0,STARLINK-4002,PAYLOAD,2024-02-24 07:14:01,15.08841373,0.0001762,53.22,20.8026,104.8125,255.3063,4.5275e-05,4.33e-06,0.0,0 STARLINK-4002,1 52612U 22052Q   24055.30140542  .00000433  00000-0  45275-4 0  9999,2 52612  53.2200  20.8026 0001762 104.8125 255.3063 15.08841373 98488,6917.876,95.437,540.96,538.522,0.0
52612.0,STARLINK-4002,PAYLOAD,2024-02-24 15:10:57,15.08841774,0.0001621,53.219,19.3164,99.3437,260.7739,9.8929e-05,1.287e-05,0.0,0 STARLINK-4002,1 52612U 22052Q   24055.63260632  .00001287  00000-0  98929-4 0  9990,2 52612  53.2190  19.3164 0001621  99.3437 260.7739 15.08841774 98531,6917.875,95.437,540.861,538.619,0.0
52612.0,STARLINK-4002,PAYLOAD,2024-02-25 03:54:01,15.08851283,0.000162,53.2186,16.9367,101.5344,258.583,0.00010976,1.46e-05,0.0,0 STARLINK-4002,1 52612U 22052Q   24056.16252064  .00001460  00000-0  10976-3 0  9997,2 52612  53.2186  16.9367 0001620 101.5344 258.5830 15.08851283 98988,6917.846,95.437,540.832,538.59,0.0
52612.0,STARLINK-4002,PAYLOAD,2024-02-25 07:04:47,15.08851932,0.0001588,53.2189,16.3414,108.3562,251.7603,0.00017159,2.445e-05,0.0,0 STARLINK-4002,1 52612U 22052Q   24056.29499956  .00002445  00000-0  17159-3 0  9998,2 52612  53.2189  16.3414 0001588 108.3562 251.7603 15.08851932 98634,6917.844,95.437,540.807,538.61,0.0
52612.0,STARLINK-4002,PAYLOAD,2024-02-26 03:44:48,15.08848116,0.0001528,53.2182,12.4779,87.6826,272.4341,0.00026318,3.904e-05,0.0,0 STARLINK-4002,1 52612U 22052Q   24057.15612243  .00003904  00000-0  26318-3 0  9998,2 52612  53.2182  12.4779 0001528  87.6826 272.4341 15.08848116 99139,6917.856,95.437,540.778,538.664,0.0
52612.0,STARLINK-4002,PAYLOAD,2024-02-26 06:55:35,15.08851711,0.0001468,53.2179,11.8828,87.944,272.172,0.00025666,3.8e-05,0.0,0 STARLINK-4002,1 52612U 22052Q   24057.28860000  .00003800  00000-0  25666-3 0  9998,2 52612  53.2179  11.8828 0001468  87.9440 272.1720 15.08851711 98784,6917.845,95.437,540.725,538.694,0.0
52612.0,STARLINK-4002,PAYLOAD,2024-02-26 21:14:03,15.08836122,0.0001901,53.2189,9.2057,93.5448,266.5761,-4.6703e-05,-1.031e-05,0.0,0 STARLINK-4002,1 52612U 22052Q   24057.88476674 -.00001031  00000-0 -46703-4 0  9996,2 52612  53.2189   9.2057 0001901  93.5448 266.5761 15.08836122 98874,6917.892,95.438,541.072,538.442,0.0
52612.0,STARLINK-4002,PAYLOAD,2024-02-27 03:35:36,15.08839858,0.0001672,53.219,8.0154,91.7274,268.391,4.6972e-05,4.6e-06,0.0,0 STARLINK-4002,1 52612U 22052Q   24058.14972689  .00000460  00000-0  46972-4 0  9994,2 52612  53.2190   8.0154 0001672  91.7274 268.3910 15.08839858 99284,6917.881,95.438,540.902,538.589,0.0
52612.0,STARLINK-4002,PAYLOAD,2024-02-27 13:07:55,15.08837751,0.0001602,53.218,6.2324,82.4248,277.6927,4.8204e-05,4.79e-06,0.0,0 STARLINK-4002,1 52612U 22052Q   24058.54716887  .00000479  00000-0  48204-4 0  9994,2 52612  53.2180   6.2324 0001602  82.4248 277.6927 15.08837751 98979,6917.887,95.438,540.861,538.644,0.0
52612.0,STARLINK-4002,PAYLOAD,2024-02-27 21:04:51,15.08828409,0.0001542,53.219,4.7497,97.3881,262.7286,-0.0001499,-2.672e-05,0.0,0 STARLINK-4002,1 52612U 22052Q   24058.87837349 -.00002672  00000-0 -14990-3 0  9990,2 52612  53.2190   4.7497 0001542  97.3881 262.7286 15.08828409 99025,6917.916,95.438,540.848,538.714,0.0
52612.0,STARLINK-4002,PAYLOAD,2024-02-28 03:26:23,15.08837006,0.0001596,53.219,3.5618,100.5277,259.5895,8.9914e-05,1.143e-05,0.0,0 STARLINK-4002,1 52612U 22052Q   24059.14333241  .00001143  00000-0  89914-4 0  9992,2 52612  53.2190   3.5618 0001596 100.5277 259.5895 15.08837006 99430,6917.89,95.438,540.859,538.65,0.0
52612.0,STARLINK-4002,PAYLOAD,2024-02-28 19:20:15,15.08840727,0.0001578,53.2189,0.5889,106.2491,253.8675,0.00033489,5.046e-05,0.0,0 STARLINK-4002,1 52612U 22052Q   24059.80573672  .00005046  00000-0  33489-3 0  9990,2 52612  53.2189   0.5889 0001578 106.2491 253.8675 15.08840727 99163,6917.878,95.438,540.835,538.652,0.0
52612.0,STARLINK-4002,PAYLOAD,2024-02-29 04:52:34,15.08856239,0.0001554,53.2185,358.8055,108.9466,251.1695,0.00072839,0.00011328,0.0,0 STARLINK-4002,1 52612U 22052Q   24060.20317293  .00011328  00000-0  72839-3 0  9993,2 52612  53.2185 358.8055 0001554 108.9466 251.1695 15.08856239 99593,6917.831,95.437,540.771,538.621,0.0
